{"type": "FeatureCollection", "features": [ {"type": "Feature", "properties": {"norad_id": 64901, "name": "CO3D 4", "group": "resource", "lat": 42.06014828263774, "lon": -110.90867833334038, "alt_km": 501.57814959288953, "timestamp": "2025-12-11T22:43:46.929583+00:00", "meta": {"OBJECT_NAME": "CO3D 4", "OBJECT_ID": "2025-156C", "EPOCH": "2025-12-09T21:09:17.831232", "MEAN_MOTION": 15.20201124, "ECCENTRICITY": 0.0001172, "INCLINATION": 97.4339, "RA_OF_ASC_NODE": 60.2895, "ARG_OF_PERICENTER": 212.2858, "MEAN_ANOMALY": 147.8306, "EPHEMERIS_TYPE": 0, "CLASSIFICATION_TYPE": "U", "NORAD_CAT_ID": 64901, "ELEMENT_SET_NO": 999, "REV_AT_EPOCH": 2077, "BSTAR": -2.5806744e-05, "MEAN_MOTION_DOT": -6.26e-06, "MEAN_MOTION_DDOT": 0}, "tle": {"line1": "1 64901U 25156C   25343.88145638 -.00000626  00000+0 -25807-4 0  9990", "line2": "2 64901  97.4339  60.2895 0001172 212.2858 147.8306 15.20201124 20779"}}, "geometry": {"type": "Point", "coordinates": [-110.90867833334038, 42.06014828263774]}}, {"type": "Feature", "properties": {"norad_id": 64902, "name": "CO3D 2", "group": "resource", "lat": -39.878248448019605, "lon": 68.48803294411552, "alt_km": 512.1347615672476, "timestamp": "2025-12-11T22:43:46.929593+00:00", "meta": {"OBJECT_NAME": "CO3D 2", "OBJECT_ID": "2025-156D", "EPOCH": "2025-12-11T16:35:15.436032", "MEAN_MOTION": 15.20205459, "ECCENTRICITY": 9.93e-05, "INCLINATION": 97.4341, "RA_OF_ASC_NODE": 61.9728, "ARG_OF_PERICENTER": 80.8055, "MEAN_ANOMALY": 279.3292, "EPHEMERIS_TYPE": 0, "CLASSIFICATION_TYPE": "U", "NORAD_CAT_ID": 64902, "ELEMENT_SET_NO": 999, "REV_AT_EPOCH": 2104, "BSTAR": 0.00011246, "MEAN_MOTION_DOT": 2.368e-05, "MEAN_MOTION_DDOT": 0}, "tle": {"line1": "1 64902U 25156D   25345.69115088  .00002368  00000+0  11246-3 0  9992", "line2": "2 64902  97.4341  61.9728 0000993  80.8055 279.3292 15.20205459 21045"}}, "geometry": {"type": "Point", "coordinates": [68.48803294411552, -39.878248448019605]}}, {"type": "Feature", "properties": {"norad_id": 64903, "name": "CO3D 1", "group": "resource", "lat": -40.58388550738344, "lon": 68.6460230756025, "alt_km": 512.1188954664613, "timestamp": "2025-12-11T22:43:46.929603+00:00", "meta": {"OBJECT_NAME": "CO3D 1", "OBJECT_ID": "2025-156E", "EPOCH": "2025-12-11T11:51:06.650208", "MEAN_MOTION": 15.20238206, "ECCENTRICITY": 9.028e-05, "INCLINATION": 97.4339, "RA_OF_ASC_NODE": 61.7774, "ARG_OF_PERICENTER": 96.7834, "MEAN_ANOMALY": 263.3503, "EPHEMERIS_TYPE": 0, "CLASSIFICATION_TYPE": "U", "NORAD_CAT_ID": 64903, "ELEMENT_SET_NO": 999, "REV_AT_EPOCH": 2101, "BSTAR": 0.0009878998, "MEAN_MOTION_DOT": 0.00021402, "MEAN_MOTION_DDOT": 0}, "tle": {"line1": "1 64903U 25156E   25345.49382697  .00021402  00000+0  98790-3 0  9992", "line2": "2 64903  97.4339  61.7774 0000902  96.7834 263.3503 15.20238206 21014"}}, "geometry": {"type": "Point", "coordinates": [68.6460230756025, -40.58388550738344]}}, {"type": "Feature", "properties": {"norad_id": 66514, "name": "SENTINEL-6B", "group": "resource", "lat": 53.693707759978594, "lon": -158.69575846663363, "alt_km": 1334.0863910938415, "timestamp": "2025-12-11T22:43:46.929613+00:00", "meta": {"OBJECT_NAME": "SENTINEL-6B", "OBJECT_ID": "2025-264A", "EPOCH": "2025-12-08T23:22:28.347744", "MEAN_MOTION": 12.8403254, "ECCENTRICITY": 0.00210881, "INCLINATION": 66.0391, "RA_OF_ASC_NODE": 170.2706, "ARG_OF_PERICENTER": 268.225, "MEAN_ANOMALY": 91.6352, "EPHEMERIS_TYPE": 0, "CLASSIFICATION_TYPE": "U", "NORAD_CAT_ID": 66514, "ELEMENT_SET_NO": 999, "REV_AT_EPOCH": 280, "BSTAR": -0.0054273268, "MEAN_MOTION_DOT": -1.368e-05, "MEAN_MOTION_DDOT": 0}, "tle": {"line1": "1 66514U 25264A   25342.97393921 -.00001368  00000+0 -54273-2 0  9992", "line2": "2 66514  66.0391 170.2706 0021088 268.2250  91.6352 12.84032540  2801"}}, "geometry": {"type": "Point", "coordinates": [-158.69575846663363, 53.693707759978594]}}]}